STARLINK-35335          
1 66180U 25243D   25311.67010613  .01483595  00000+0  67467-2 0  9999
2 66180  53.1526  96.2097 0020360 218.0280 141.9307 15.80332751  1911
STARLINK-35342          
1 66181U 25243E   25312.11496928 -.00588634  00000+0 -42039-2 0  9996
2 66181  53.1536  94.0079 0000870  50.9913 309.1185 15.74722127  1981
STARLINK-35333          
1 66182U 25243F   25311.98767372 -.01737916  00000+0 -12108-1 0  9998
2 66182  53.1530  94.6352 0007670 287.3180  72.7002 15.76491581  1961
STARLINK-35310          
1 66183U 25243G   25312.11531610 -.00453682  00000+0 -31748-2 0  9995
2 66183  53.1536  94.0107 0003402  51.4996 308.6328 15.74801749  1987
STARLINK-35317          
1 66184U 25243H   25311.86572780 -.00267164  00000+0 -17070-2 0  9990
2 66184  53.1528  95.3001 0002788  54.5633 305.5647 15.76361332  1941
STARLINK-35377          
1 66185U 25243J   25311.23228093  .01513157  00000+0  68401-2 0  9996
2 66185  53.1511  98.4609 0011233 213.3629 146.6687 15.80560768  1843
STARLINK-35365          
1 66186U 25243K   25311.80368604  .00222913  00000+0  13016-2 0  9991
2 66186  53.1540  95.6269 0013148 178.6158 181.4902 15.77117801  1933
STARLINK-35350          
1 66187U 25243L   25311.80299832 -.01253281  00000+0 -86845-2 0  9993
2 66187  53.1531  95.6211 0003364  27.7172 332.4028 15.76682764  1931
STARLINK-35041          
1 66188U 25243M   25312.11866898  .00282422  00000+0  17258-2 0  9999
2 66188  53.1532  94.0340 0002114 210.6247 149.4650 15.76020129  1980
STARLINK-34694          
1 66189U 25243N   25311.80085071 -.01045909  00000+0 -72013-2 0  9991
2 66189  53.1531  95.6066 0000608  25.2739 334.8311 15.76369441  1936
STARLINK-34863          
1 66190U 25243P   25312.11772002  .00588652  00000+0  28424-2 0  9996
2 66190  53.1528  94.0262 0019628 327.7747  32.2075 15.80228000  1987
STARLINK-35061          
1 66191U 25243Q   25311.67150355  .01098186  00000+0  55029-2 0  9998
2 66191  53.1521  96.2200 0010012 169.3389 190.7847 15.78698940  1918
