CCSDS_OMM_VERS = 2.0
CREATION_DATE  = 
ORIGINATOR     = 

OBJECT_NAME    = STARLINK-35335
OBJECT_ID      = 2025-243D
CENTER_NAME    = EARTH
REF_FRAME      = TEME
TIME_SYSTEM    = UTC
MEAN_ELEMENT_THEORY = SGP/SGP4

EPOCH          = 2025-11-07T16:04:57.169632
MEAN_MOTION    = 15.80332751
ECCENTRICITY   = .002036
INCLINATION    = 53.1526
RA_OF_ASC_NODE = 96.2097
ARG_OF_PERICENTER = 218.0280
MEAN_ANOMALY   = 141.9307

EPHEMERIS_TYPE = 0
CLASSIFICATION_TYPE = U
NORAD_CAT_ID   = 66180
ELEMENT_SET_NO = 999
REV_AT_EPOCH   = 191
BSTAR          = .67467E-2
MEAN_MOTION_DOT = .1483595E-1
MEAN_MOTION_DDOT = 0

CCSDS_OMM_VERS = 2.0
CREATION_DATE  = 
ORIGINATOR     = 

OBJECT_NAME    = STARLINK-35342
OBJECT_ID      = 2025-243E
CENTER_NAME    = EARTH
REF_FRAME      = TEME
TIME_SYSTEM    = UTC
MEAN_ELEMENT_THEORY = SGP/SGP4

EPOCH          = 2025-11-08T02:45:33.345792
MEAN_MOTION    = 15.74722127
ECCENTRICITY   = .000087
INCLINATION    = 53.1536
RA_OF_ASC_NODE = 94.0079
ARG_OF_PERICENTER = 50.9913
MEAN_ANOMALY   = 309.1185

EPHEMERIS_TYPE = 0
CLASSIFICATION_TYPE = U
NORAD_CAT_ID   = 66181
ELEMENT_SET_NO = 999
REV_AT_EPOCH   = 198
BSTAR          = -.42039E-2
MEAN_MOTION_DOT = -.588634E-2
MEAN_MOTION_DDOT = 0

CCSDS_OMM_VERS = 2.0
CREATION_DATE  = 
ORIGINATOR     = 

OBJECT_NAME    = STARLINK-35333
OBJECT_ID      = 2025-243F
CENTER_NAME    = EARTH
REF_FRAME      = TEME
TIME_SYSTEM    = UTC
MEAN_ELEMENT_THEORY = SGP/SGP4

EPOCH          = 2025-11-07T23:42:15.009408
MEAN_MOTION    = 15.76491581
ECCENTRICITY   = .000767
INCLINATION    = 53.1530
RA_OF_ASC_NODE = 94.6352
ARG_OF_PERICENTER = 287.3180
MEAN_ANOMALY   = 72.7002

EPHEMERIS_TYPE = 0
CLASSIFICATION_TYPE = U
NORAD_CAT_ID   = 66182
ELEMENT_SET_NO = 999
REV_AT_EPOCH   = 196
BSTAR          = -.12108E-1
MEAN_MOTION_DOT = -.1737916E-1
MEAN_MOTION_DDOT = 0

CCSDS_OMM_VERS = 2.0
CREATION_DATE  = 
ORIGINATOR     = 

OBJECT_NAME    = STARLINK-35310
OBJECT_ID      = 2025-243G
CENTER_NAME    = EARTH
REF_FRAME      = TEME
TIME_SYSTEM    = UTC
MEAN_ELEMENT_THEORY = SGP/SGP4

EPOCH          = 2025-11-08T02:46:03.311040
MEAN_MOTION    = 15.74801749
ECCENTRICITY   = .0003402
INCLINATION    = 53.1536
RA_OF_ASC_NODE = 94.0107
ARG_OF_PERICENTER = 51.4996
MEAN_ANOMALY   = 308.6328

EPHEMERIS_TYPE = 0
CLASSIFICATION_TYPE = U
NORAD_CAT_ID   = 66183
ELEMENT_SET_NO = 999
REV_AT_EPOCH   = 198
BSTAR          = -.31748E-2
MEAN_MOTION_DOT = -.453682E-2
MEAN_MOTION_DDOT = 0

CCSDS_OMM_VERS = 2.0
CREATION_DATE  = 
ORIGINATOR     = 

OBJECT_NAME    = STARLINK-35317
OBJECT_ID      = 2025-243H
CENTER_NAME    = EARTH
REF_FRAME      = TEME
TIME_SYSTEM    = UTC
MEAN_ELEMENT_THEORY = SGP/SGP4

EPOCH          = 2025-11-07T20:46:38.881920
MEAN_MOTION    = 15.76361332
ECCENTRICITY   = .0002788
INCLINATION    = 53.1528
RA_OF_ASC_NODE = 95.3001
ARG_OF_PERICENTER = 54.5633
MEAN_ANOMALY   = 305.5647

EPHEMERIS_TYPE = 0
CLASSIFICATION_TYPE = U
NORAD_CAT_ID   = 66184
ELEMENT_SET_NO = 999
REV_AT_EPOCH   = 194
BSTAR          = -.1707E-2
MEAN_MOTION_DOT = -.267164E-2
MEAN_MOTION_DDOT = 0

CCSDS_OMM_VERS = 2.0
CREATION_DATE  = 
ORIGINATOR     = 

OBJECT_NAME    = STARLINK-35377
OBJECT_ID      = 2025-243J
CENTER_NAME    = EARTH
REF_FRAME      = TEME
TIME_SYSTEM    = UTC
MEAN_ELEMENT_THEORY = SGP/SGP4

EPOCH          = 2025-11-07T05:34:29.072352
MEAN_MOTION    = 15.80560768
ECCENTRICITY   = .0011233
INCLINATION    = 53.1511
RA_OF_ASC_NODE = 98.4609
ARG_OF_PERICENTER = 213.3629
MEAN_ANOMALY   = 146.6687

EPHEMERIS_TYPE = 0
CLASSIFICATION_TYPE = U
NORAD_CAT_ID   = 66185
ELEMENT_SET_NO = 999
REV_AT_EPOCH   = 184
BSTAR          = .68401E-2
MEAN_MOTION_DOT = .1513157E-1
MEAN_MOTION_DDOT = 0

CCSDS_OMM_VERS = 2.0
CREATION_DATE  = 
ORIGINATOR     = 

OBJECT_NAME    = STARLINK-35365
OBJECT_ID      = 2025-243K
CENTER_NAME    = EARTH
REF_FRAME      = TEME
TIME_SYSTEM    = UTC
MEAN_ELEMENT_THEORY = SGP/SGP4

EPOCH          = 2025-11-07T19:17:18.473856
MEAN_MOTION    = 15.77117801
ECCENTRICITY   = .0013148
INCLINATION    = 53.1540
RA_OF_ASC_NODE = 95.6269
ARG_OF_PERICENTER = 178.6158
MEAN_ANOMALY   = 181.4902

EPHEMERIS_TYPE = 0
CLASSIFICATION_TYPE = U
NORAD_CAT_ID   = 66186
ELEMENT_SET_NO = 999
REV_AT_EPOCH   = 193
BSTAR          = .13016E-2
MEAN_MOTION_DOT = .222913E-2
MEAN_MOTION_DDOT = 0

CCSDS_OMM_VERS = 2.0
CREATION_DATE  = 
ORIGINATOR     = 

OBJECT_NAME    = STARLINK-35350
OBJECT_ID      = 2025-243L
CENTER_NAME    = EARTH
REF_FRAME      = TEME
TIME_SYSTEM    = UTC
MEAN_ELEMENT_THEORY = SGP/SGP4

EPOCH          = 2025-11-07T19:16:19.054848
MEAN_MOTION    = 15.76682764
ECCENTRICITY   = .0003364
INCLINATION    = 53.1531
RA_OF_ASC_NODE = 95.6211
ARG_OF_PERICENTER = 27.7172
MEAN_ANOMALY   = 332.4028

EPHEMERIS_TYPE = 0
CLASSIFICATION_TYPE = U
NORAD_CAT_ID   = 66187
ELEMENT_SET_NO = 999
REV_AT_EPOCH   = 193
BSTAR          = -.86845E-2
MEAN_MOTION_DOT = -.1253281E-1
MEAN_MOTION_DDOT = 0

CCSDS_OMM_VERS = 2.0
CREATION_DATE  = 
ORIGINATOR     = 

OBJECT_NAME    = STARLINK-35041
OBJECT_ID      = 2025-243M
CENTER_NAME    = EARTH
REF_FRAME      = TEME
TIME_SYSTEM    = UTC
MEAN_ELEMENT_THEORY = SGP/SGP4

EPOCH          = 2025-11-08T02:50:52.999872
MEAN_MOTION    = 15.76020129
ECCENTRICITY   = .0002114
INCLINATION    = 53.1532
RA_OF_ASC_NODE = 94.0340
ARG_OF_PERICENTER = 210.6247
MEAN_ANOMALY   = 149.4650

EPHEMERIS_TYPE = 0
CLASSIFICATION_TYPE = U
NORAD_CAT_ID   = 66188
ELEMENT_SET_NO = 999
REV_AT_EPOCH   = 198
BSTAR          = .17258E-2
MEAN_MOTION_DOT = .282422E-2
MEAN_MOTION_DDOT = 0

CCSDS_OMM_VERS = 2.0
CREATION_DATE  = 
ORIGINATOR     = 

OBJECT_NAME    = STARLINK-34694
OBJECT_ID      = 2025-243N
CENTER_NAME    = EARTH
REF_FRAME      = TEME
TIME_SYSTEM    = UTC
MEAN_ELEMENT_THEORY = SGP/SGP4

EPOCH          = 2025-11-07T19:13:13.501344
MEAN_MOTION    = 15.76369441
ECCENTRICITY   = .0000608
INCLINATION    = 53.1531
RA_OF_ASC_NODE = 95.6066
ARG_OF_PERICENTER = 25.2739
MEAN_ANOMALY   = 334.8311

EPHEMERIS_TYPE = 0
CLASSIFICATION_TYPE = U
NORAD_CAT_ID   = 66189
ELEMENT_SET_NO = 999
REV_AT_EPOCH   = 193
BSTAR          = -.72013E-2
MEAN_MOTION_DOT = -.1045909E-1
MEAN_MOTION_DDOT = 0

CCSDS_OMM_VERS = 2.0
CREATION_DATE  = 
ORIGINATOR     = 

OBJECT_NAME    = STARLINK-34863
OBJECT_ID      = 2025-243P
CENTER_NAME    = EARTH
REF_FRAME      = TEME
TIME_SYSTEM    = UTC
MEAN_ELEMENT_THEORY = SGP/SGP4

EPOCH          = 2025-11-08T02:49:31.009728
MEAN_MOTION    = 15.80228000
ECCENTRICITY   = .0019628
INCLINATION    = 53.1528
RA_OF_ASC_NODE = 94.0262
ARG_OF_PERICENTER = 327.7747
MEAN_ANOMALY   = 32.2075

EPHEMERIS_TYPE = 0
CLASSIFICATION_TYPE = U
NORAD_CAT_ID   = 66190
ELEMENT_SET_NO = 999
REV_AT_EPOCH   = 198
BSTAR          = .28424E-2
MEAN_MOTION_DOT = .588652E-2
MEAN_MOTION_DDOT = 0

CCSDS_OMM_VERS = 2.0
CREATION_DATE  = 
ORIGINATOR     = 

OBJECT_NAME    = STARLINK-35061
OBJECT_ID      = 2025-243Q
CENTER_NAME    = EARTH
REF_FRAME      = TEME
TIME_SYSTEM    = UTC
MEAN_ELEMENT_THEORY = SGP/SGP4

EPOCH          = 2025-11-07T16:06:57.906720
MEAN_MOTION    = 15.78698940
ECCENTRICITY   = .0010012
INCLINATION    = 53.1521
RA_OF_ASC_NODE = 96.2200
ARG_OF_PERICENTER = 169.3389
MEAN_ANOMALY   = 190.7847

EPHEMERIS_TYPE = 0
CLASSIFICATION_TYPE = U
NORAD_CAT_ID   = 66191
ELEMENT_SET_NO = 999
REV_AT_EPOCH   = 191
BSTAR          = .55029E-2
MEAN_MOTION_DOT = .1098186E-1
MEAN_MOTION_DDOT = 0

